{"type": "FeatureCollection", "features": [ {"type": "Feature", "properties": {"norad_id": 35982, "name": "COSMOS 2251 DEB", "group": "cosmos-2251-debris", "lat": 31.24012940742316, "lon": 134.60857480984117, "alt_km": 704.4394774877373, "timestamp": "2025-12-24T09:46:31.401990+00:00", "meta": {"OBJECT_NAME": "COSMOS 2251 DEB", "OBJECT_ID": "1993-036AVY", "EPOCH": "2025-12-24T04:11:05.846208", "MEAN_MOTION": 14.628153, "ECCENTRICITY": 0.0064554, "INCLINATION": 74.0585, "RA_OF_ASC_NODE": 325.0386, "ARG_OF_PERICENTER": 27.9995, "MEAN_ANOMALY": 332.4619, "EPHEMERIS_TYPE": 0, "CLASSIFICATION_TYPE": "U", "NORAD_CAT_ID": 35982, "ELEMENT_SET_NO": 999, "REV_AT_EPOCH": 86333, "BSTAR": 0.0006629, "MEAN_MOTION_DOT": 3.457e-05, "MEAN_MOTION_DDOT": 0}, "tle": {"line1": "1 35982U 93036AVY 25358.17437322  .00003457  00000+0  66290-3 0  9994", "line2": "2 35982  74.0585 325.0386 0064554  27.9995 332.4619 14.62815300863331"}}, "geometry": {"type": "Point", "coordinates": [134.60857480984117, 31.24012940742316]}}, {"type": "Feature", "properties": {"norad_id": 35987, "name": "COSMOS 2251 DEB", "group": "cosmos-2251-debris", "lat": 34.4081072980614, "lon": -43.743487849926964, "alt_km": 716.9692785700499, "timestamp": "2025-12-24T09:46:31.402000+00:00", "meta": {"OBJECT_NAME": "COSMOS 2251 DEB", "OBJECT_ID": "1993-036AWD", "EPOCH": "2025-12-24T02:57:19.908576", "MEAN_MOTION": 14.43193556, "ECCENTRICITY": 0.0046371, "INCLINATION": 74.0006, "RA_OF_ASC_NODE": 305.4518, "ARG_OF_PERICENTER": 67.5999, "MEAN_ANOMALY": 293.006, "EPHEMERIS_TYPE": 0, "CLASSIFICATION_TYPE": "U", "NORAD_CAT_ID": 35987, "ELEMENT_SET_NO": 999, "REV_AT_EPOCH": 61229, "BSTAR": 0.0010351, "MEAN_MOTION_DOT": 3.5e-05, "MEAN_MOTION_DDOT": 0}, "tle": {"line1": "1 35987U 93036AWD 25358.12314709  .00003500  00000+0  10351-2 0  9992", "line2": "2 35987  74.0006 305.4518 0046371  67.5999 293.0060 14.43193556612294"}}, "geometry": {"type": "Point", "coordinates": [-43.743487849926964, 34.4081072980614]}}, {"type": "Feature", "properties": {"norad_id": 35989, "name": "COSMOS 2251 DEB", "group": "cosmos-2251-debris", "lat": -7.051992625469784, "lon": 84.40672841285928, "alt_km": 785.936326117232, "timestamp": "2025-12-24T09:46:31.402011+00:00", "meta": {"OBJECT_NAME": "COSMOS 2251 DEB", "OBJECT_ID": "1993-036AWF", "EPOCH": "2025-12-21T00:42:48.161376", "MEAN_MOTION": 14.37112482, "ECCENTRICITY": 0.00223748, "INCLINATION": 74.0376, "RA_OF_ASC_NODE": 268.5863, "ARG_OF_PERICENTER": 348.5916, "MEAN_ANOMALY": 11.4727, "EPHEMERIS_TYPE": 0, "CLASSIFICATION_TYPE": "U", "NORAD_CAT_ID": 35989, "ELEMENT_SET_NO": 999, "REV_AT_EPOCH": 87298, "BSTAR": 0.00015604931, "MEAN_MOTION_DOT": 4.39e-06, "MEAN_MOTION_DDOT": 0}, "tle": {"line1": "1 35989U 93036AWF 25355.02972409  .00000439  00000+0  15605-3 0  9993", "line2": "2 35989  74.0376 268.5863 0022374 348.5916  11.4727 14.37112482872984"}}, "geometry": {"type": "Point", "coordinates": [84.40672841285928, -7.051992625469784]}}, {"type": "Feature", "properties": {"norad_id": 35993, "name": "COSMOS 2251 DEB", "group": "cosmos-2251-debris", "lat": 8.828730737532622, "lon": 127.76319696830535, "alt_km": 660.6742795798091, "timestamp": "2025-12-24T09:46:31.402021+00:00", "meta": {"OBJECT_NAME": "COSMOS 2251 DEB", "OBJECT_ID": "1993-036AWK", "EPOCH": "2025-12-21T03:59:29.501088", "MEAN_MOTION": 14.65356197, "ECCENTRICITY": 0.0028516, "INCLINATION": 74.0154, "RA_OF_ASC_NODE": 316.5577, "ARG_OF_PERICENTER": 143.4068, "MEAN_ANOMALY": 216.9056, "EPHEMERIS_TYPE": 0, "CLASSIFICATION_TYPE": "U", "NORAD_CAT_ID": 35993, "ELEMENT_SET_NO": 999, "REV_AT_EPOCH": 60566, "BSTAR": 0.00046927088, "MEAN_MOTION_DOT": 2.519e-05, "MEAN_MOTION_DDOT": 0}, "tle": {"line1": "1 35993U 93036AWK 25355.16631367  .00002519  00000+0  46927-3 0  9990", "line2": "2 35993  74.0154 316.5577 0028516 143.4068 216.9056 14.65356197605663"}}, "geometry": {"type": "Point", "coordinates": [127.76319696830535, 8.828730737532622]}}, {"type": "Feature", "properties": {"norad_id": 35996, "name": "COSMOS 2251 DEB", "group": "cosmos-2251-debris", "lat": -56.17686569742752, "lon": 54.00943021242855, "alt_km": 585.7714023620601, "timestamp": "2025-12-24T09:46:31.402030+00:00", "meta": {"OBJECT_NAME": "COSMOS 2251 DEB", "OBJECT_ID": "1993-036AWN", "EPOCH": "2025-12-15T22:25:06.327264", "MEAN_MOTION": 15.09228347, "ECCENTRICITY": 0.00876626, "INCLINATION": 74.0159, "RA_OF_ASC_NODE": 96.8248, "ARG_OF_PERICENTER": 187.0066, "MEAN_ANOMALY": 172.9909, "EPHEMERIS_TYPE": 0, "CLASSIFICATION_TYPE": "U", "NORAD_CAT_ID": 35996, "ELEMENT_SET_NO": 999, "REV_AT_EPOCH": 72374, "BSTAR": 0.00054952121, "MEAN_MOTION_DOT": 9.536e-05, "MEAN_MOTION_DDOT": 0}, "tle": {"line1": "1 35996U 93036AWN 25349.93410101  .00009536  00000+0  54952-3 0  9995", "line2": "2 35996  74.0159  96.8248 0087662 187.0066 172.9909 15.09228347723745"}}, "geometry": {"type": "Point", "coordinates": [54.00943021242855, -56.17686569742752]}}, {"type": "Feature", "properties": {"norad_id": 35997, "name": "COSMOS 2251 DEB", "group": "cosmos-2251-debris", "lat": 57.02638635585527, "lon": -40.81750306377674, "alt_km": 720.9867701333469, "timestamp": "2025-12-24T09:46:31.402041+00:00", "meta": {"OBJECT_NAME": "COSMOS 2251 DEB", "OBJECT_ID": "1993-036AWP", "EPOCH": "2025-12-23T05:06:13.780800", "MEAN_MOTION": 14.51360271, "ECCENTRICITY": 0.0015396, "INCLINATION": 74.0436, "RA_OF_ASC_NODE": 167.5974, "ARG_OF_PERICENTER": 242.7596, "MEAN_ANOMALY": 117.1997, "EPHEMERIS_TYPE": 0, "CLASSIFICATION_TYPE": "U", "NORAD_CAT_ID": 35997, "ELEMENT_SET_NO": 999, "REV_AT_EPOCH": 71036, "BSTAR": 0.00062809556, "MEAN_MOTION_DOT": 2.48e-05, "MEAN_MOTION_DDOT": 0}, "tle": {"line1": "1 35997U 93036AWP 25357.21265950  .00002480  00000+0  62810-3 0  9999", "line2": "2 35997  74.0436 167.5974 0015396 242.7596 117.1997 14.51360271710369"}}, "geometry": {"type": "Point", "coordinates": [-40.81750306377674, 57.02638635585527]}}, {"type": "Feature", "properties": {"norad_id": 36005, "name": "COSMOS 2251 DEB", "group": "cosmos-2251-debris", "lat": -14.8970139943347, "lon": 67.80652862753314, "alt_km": 770.760269688988, "timestamp": "2025-12-24T09:46:31.402051+00:00", "meta": {"OBJECT_NAME": "COSMOS 2251 DEB", "OBJECT_ID": "1993-036AWX", "EPOCH": "2025-12-23T22:14:08.155392", "MEAN_MOTION": 14.4737424, "ECCENTRICITY": 0.0061558, "INCLINATION": 74.027, "RA_OF_ASC_NODE": 73.0757, "ARG_OF_PERICENTER": 208.0822, "MEAN_ANOMALY": 151.7013, "EPHEMERIS_TYPE": 0, "CLASSIFICATION_TYPE": "U", "NORAD_CAT_ID": 36005, "ELEMENT_SET_NO": 999, "REV_AT_EPOCH": 87746, "BSTAR": 0.0001839, "MEAN_MOTION_DOT": 6.62e-06, "MEAN_MOTION_DDOT": 0}, "tle": {"line1": "1 36005U 93036AWX 25357.92648328  .00000662  00000+0  18390-3 0  9996", "line2": "2 36005  74.0270  73.0757 0061558 208.0822 151.7013 14.47374240877468"}}, "geometry": {"type": "Point", "coordinates": [67.80652862753314, -14.8970139943347]}}, {"type": "Feature", "properties": {"norad_id": 36045, "name": "COSMOS 2251 DEB", "group": "cosmos-2251-debris", "lat": -73.72845478586399, "lon": -57.20482125827687, "alt_km": 692.6905754520758, "timestamp": "2025-12-24T09:46:31.402062+00:00", "meta": {"OBJECT_NAME": "COSMOS 2251 DEB", "OBJECT_ID": "1993-036AXG", "EPOCH": "2025-12-17T21:23:36.435552", "MEAN_MOTION": 14.69971183, "ECCENTRICITY": 0.0048002, "INCLINATION": 73.7643, "RA_OF_ASC_NODE": 48.9349, "ARG_OF_PERICENTER": 60.9199, "MEAN_ANOMALY": 299.6765, "EPHEMERIS_TYPE": 0, "CLASSIFICATION_TYPE": "U", "NORAD_CAT_ID": 36045, "ELEMENT_SET_NO": 999, "REV_AT_EPOCH": 8464, "BSTAR": 0.0014164853, "MEAN_MOTION_DOT": 8.618e-05, "MEAN_MOTION_DDOT": 0}, "tle": {"line1": "1 36045U 93036AXG 25351.89139393  .00008618  00000+0  14165-2 0  9991", "line2": "2 36045  73.7643  48.9349 0048002  60.9199 299.6765 14.69971183 84640"}}, "geometry": {"type": "Point", "coordinates": [-57.20482125827687, -73.72845478586399]}}, {"type": "Feature", "properties": {"norad_id": 36046, "name": "COSMOS 2251 DEB", "group": "cosmos-2251-debris", "lat": 43.588545284769886, "lon": 58.18707562928089, "alt_km": 676.8238297070584, "timestamp": "2025-12-24T09:46:31.402072+00:00", "meta": {"OBJECT_NAME": "COSMOS 2251 DEB", "OBJECT_ID": "1993-036AXH", "EPOCH": "2025-12-21T00:56:56.522112", "MEAN_MOTION": 14.65315014, "ECCENTRICITY": 0.00558701, "INCLINATION": 74.0169, "RA_OF_ASC_NODE": 260.5061, "ARG_OF_PERICENTER": 44.1197, "MEAN_ANOMALY": 331.1837, "EPHEMERIS_TYPE": 0, "CLASSIFICATION_TYPE": "U", "NORAD_CAT_ID": 36046, "ELEMENT_SET_NO": 999, "REV_AT_EPOCH": 64125, "BSTAR": 0.00034570915, "MEAN_MOTION_DOT": 1.877e-05, "MEAN_MOTION_DDOT": 0}, "tle": {"line1": "1 36046U 93036AXH 25355.03954308  .00001877  00000+0  34571-3 0  9997", "line2": "2 36046  74.0169 260.5061 0055870  44.1197 331.1837 14.65315014641253"}}, "geometry": {"type": "Point", "coordinates": [58.18707562928089, 43.588545284769886]}}, {"type": "Feature", "properties": {"norad_id": 36047, "name": "COSMOS 2251 DEB", "group": "cosmos-2251-debris", "lat": -69.3336937385255, "lon": -98.78588767680479, "alt_km": 581.1619116242928, "timestamp": "2025-12-24T09:46:31.402082+00:00", "meta": {"OBJECT_NAME": "COSMOS 2251 DEB", "OBJECT_ID": "1993-036AXJ", "EPOCH": "2025-12-21T21:08:53.075040", "MEAN_MOTION": 14.96393257, "ECCENTRICITY": 0.000841, "INCLINATION": 74.036, "RA_OF_ASC_NODE": 315.6865, "ARG_OF_PERICENTER": 344.906, "MEAN_ANOMALY": 15.1873, "EPHEMERIS_TYPE": 0, "CLASSIFICATION_TYPE": "U", "NORAD_CAT_ID": 36047, "ELEMENT_SET_NO": 999, "REV_AT_EPOCH": 66076, "BSTAR": 0.0028311075, "MEAN_MOTION_DOT": 0.00032218, "MEAN_MOTION_DDOT": 0}, "tle": {"line1": "1 36047U 93036AXJ 25355.88116985  .00032218  00000+0  28311-2 0  9999", "line2": "2 36047  74.0360 315.6865 0008410 344.9060  15.1873 14.96393257660764"}}, "geometry": {"type": "Point", "coordinates": [-98.78588767680479, -69.3336937385255]}}]}